NORAD_CAT_ID,OBJECT_NAME,OBJECT_TYPE,EPOCH,MEAN_MOTION,ECCENTRICITY,INCLINATION,RA_OF_ASC_NODE,ARG_OF_PERICENTER,MEAN_ANOMALY,BSTAR,MEAN_MOTION_DOT,MEAN_MOTION_DDOT,TLE_LINE0,TLE_LINE1,TLE_LINE2,SEMIMAJOR_AXIS,PERIOD,APOGEE,PERIGEE,DECAYED
53275.0,STARLINK-4179,PAYLOAD,2023-06-07 18:29:24,15.08835191,0.0001043,53.2186,19.8649,97.3842,262.7269,-4.8581e-05,-1.061e-05,0.0,0 STARLINK-4179,1 53275U 22086AK  23158.77042413 -.00001061  00000-0 -48581-4 0  9997,2 53275  53.2186  19.8649 0001043  97.3842 262.7269 15.08835191 49162,6917.895,95.438,540.482,539.039,0.0
53275.0,STARLINK-4179,PAYLOAD,2023-06-07 21:40:10,15.08838815,0.0001066,53.2185,19.2723,99.2879,260.8234,-3.4976e-05,-8.44e-06,0.0,0 STARLINK-4179,1 53275U 22086AK  23158.90290185 -.00000844  00000-0 -34976-4 0  9994,2 53275  53.2185  19.2723 0001066  99.2879 260.8234 15.08838815 49352,6917.884,95.438,540.486,539.012,0.0
53275.0,STARLINK-4179,PAYLOAD,2023-06-07 23:15:33,15.0884152,9.57e-05,53.2183,18.9735,95.6394,264.4707,-2.643e-05,-7.08e-06,0.0,0 STARLINK-4179,1 53275U 22086AK  23158.96913908 -.00000708  00000-0 -26430-4 0  9990,2 53275  53.2183  18.9735 0000957  95.6394 264.4707 15.08841520 49193,6917.876,95.437,540.403,539.079,0.0
53275.0,STARLINK-4179,PAYLOAD,2023-06-08 13:34:02,15.08835515,9.54e-05,53.2184,16.2973,100.2152,259.8948,6.7008e-05,7.79e-06,0.0,0 STARLINK-4179,1 53275U 22086AK  23159.56530178  .00000779  00000-0  67008-4 0  9993,2 53275  53.2184  16.2973 0000954 100.2152 259.8948 15.08835515 49452,6917.894,95.438,540.419,539.099,0.0
53275.0,STARLINK-4179,PAYLOAD,2023-06-09 07:03:16,15.08841207,8.5e-05,53.218,13.0263,94.7166,265.3924,1.57e-05,-3.8e-07,0.0,0 STARLINK-4179,1 53275U 22086AK  23160.29393968 -.00000038  00000-0  15700-4 0  9990,2 53275  53.2180  13.0263 0000850  94.7166 265.3924 15.08841207 49396,6917.877,95.437,540.33,539.154,0.0
53275.0,STARLINK-4179,PAYLOAD,2023-06-09 16:35:35,15.08835297,8.39e-05,53.218,11.243,92.3761,267.7327,-7.2204e-06,-4.03e-06,0.0,0 STARLINK-4179,1 53275U 22086AK  23160.69138789 -.00000403  00000-0 -72204-5 0  9992,2 53275  53.2180  11.2430 0000839  92.3761 267.7327 15.08835297 49456,6917.895,95.438,540.34,539.179,0.0
53275.0,STARLINK-4179,PAYLOAD,2023-06-10 00:32:31,15.08836858,0.0001019,53.218,9.7551,105.7481,254.3623,0.00016931,2.408e-05,0.0,0 STARLINK-4179,1 53275U 22086AK  23161.02258177  .00002408  00000-0  16931-3 0  9992,2 53275  53.2180   9.7551 0001019 105.7481 254.3623 15.08836858 49502,6917.89,95.438,540.46,539.05,0.0
53275.0,STARLINK-4179,PAYLOAD,2023-06-10 06:54:04,15.08836705,0.000106,53.2178,8.5644,86.1541,273.9572,5.4603e-05,5.81e-06,0.0,0 STARLINK-4179,1 53275U 22086AK  23161.28754630  .00000581  00000-0  54603-4 0  9994,2 53275  53.2178   8.5644 0001060  86.1541 273.9572 15.08836705 49718,6917.89,95.438,540.489,539.022,0.0
53275.0,STARLINK-4179,PAYLOAD,2023-06-11 06:44:50,15.08844267,9.94e-05,53.2186,4.102,77.8525,282.2578,-3.1559e-05,-7.9e-06,0.0,0 STARLINK-4179,1 53275U 22086AK  23162.28114342 -.00000790  00000-0 -31559-4 0  9994,2 53275  53.2186   4.1020 0000994  77.8525 282.2578 15.08844267 49699,6917.867,95.437,540.42,539.045,0.0
53275.0,STARLINK-4179,PAYLOAD,2023-06-11 21:03:19,15.08841161,0.000106,53.2188,1.4257,87.2252,272.8862,3.3783e-05,2.5e-06,0.0,0 STARLINK-4179,1 53275U 22086AK  23162.87730502  .00000250  00000-0  33783-4 0  9991,2 53275  53.2188   1.4257 0001060  87.2252 272.8862 15.08841161 49950,6917.877,95.437,540.475,539.009,0.0
53275.0,STARLINK-4179,PAYLOAD,2023-06-12 06:35:37,15.08842994,9.78e-05,53.2182,359.6415,99.133,260.9773,4.929e-05,4.97e-06,0.0,0 STARLINK-4179,1 53275U 22086AK  23163.27474250  .00000497  00000-0  49290-4 0  9994,2 53275  53.2182 359.6415 0000978  99.1330 260.9773 15.08842994 50017,6917.871,95.437,540.413,539.06,0.0
53275.0,STARLINK-4179,PAYLOAD,2023-06-12 19:18:43,15.08839364,9.63e-05,53.2185,357.2628,87.7813,272.329,3.934e-05,3.38e-06,0.0,0 STARLINK-4179,1 53275U 22086AK  23163.80466536  .00000338  00000-0  39340-4 0  9990,2 53275  53.2185 357.2628 0000963  87.7813 272.3290 15.08839364 49929,6917.882,95.438,540.414,539.081,0.0
53275.0,STARLINK-4179,PAYLOAD,2023-06-12 22:29:28,15.08847203,0.0001005,53.2179,356.6698,87.0052,273.1055,3.8057e-05,3.18e-06,0.0,0 STARLINK-4179,1 53275U 22086AK  23163.93714086  .00000318  00000-0  38057-4 0  9992,2 53275  53.2179 356.6698 0001005  87.0052 273.1055 15.08847203 49949,6917.858,95.437,540.419,539.028,0.0
53275.0,STARLINK-4179,PAYLOAD,2023-06-13 19:09:29,15.0883967,9.82e-05,53.2187,352.8014,96.3114,263.799,7.26e-05,8.68e-06,0.0,0 STARLINK-4179,1 53275U 22086AK  23164.79826320  .00000868  00000-0  72600-4 0  9994,2 53275  53.2187 352.8014 0000982  96.3114 263.7990 15.08839670 50071,6917.881,95.438,540.426,539.067,0.0
53275.0,STARLINK-4179,PAYLOAD,2023-06-14 12:38:44,15.08835982,0.0001093,53.2191,349.5294,118.2905,241.8198,-1.595e-06,-3.13e-06,0.0,0 STARLINK-4179,1 53275U 22086AK  23165.52690796 -.00000313  00000-0 -15950-5 0  9995,2 53275  53.2191 349.5294 0001093 118.2905 241.8198 15.08835982 50355,6917.893,95.438,540.514,539.002,0.0
53275.0,STARLINK-4179,PAYLOAD,2023-06-14 20:35:40,15.08840472,0.0001025,53.2188,348.0449,94.0005,266.1105,9.5742e-06,-1.35e-06,0.0,0 STARLINK-4179,1 53275U 22086AK  23165.85810593 -.00000135  00000-0  95742-5 0  9998,2 53275  53.2188 348.0449 0001025  94.0005 266.1105 15.08840472 50408,6917.879,95.438,540.453,539.035,0.0
53275.0,STARLINK-4179,PAYLOAD,2023-06-14 22:11:03,15.08840523,0.0001019,53.2184,347.749,92.9557,267.1552,-9.0611e-08,-2.89e-06,0.0,0 STARLINK-4179,1 53275U 22086AK  23165.92434622 -.00000289  00000-0 -90611-7 0  9994,2 53275  53.2184 347.7490 0001019  92.9557 267.1552 15.08840523 50244,6917.879,95.438,540.449,539.039,0.0
53275.0,STARLINK-4179,PAYLOAD,2023-06-15 12:29:31,15.08838547,9.78e-05,53.2183,345.0731,95.9381,264.1722,-2.6659e-06,-3.3e-06,0.0,0 STARLINK-4179,1 53275U 22086AK  23166.52050893 -.00000330  00000-0 -26659-5 0  9991,2 53275  53.2183 345.0731 0000978  95.9381 264.1722 15.08838547 50501,6917.885,95.438,540.426,539.073,0.0
53275.0,STARLINK-4179,PAYLOAD,2023-06-15 18:51:04,15.08843704,9.58e-05,53.2181,343.8844,94.8423,265.2678,4.2952e-05,3.96e-06,0.0,0 STARLINK-4179,1 53275U 22086AK  23166.78546444  .00000396  00000-0  42952-4 0  9994,2 53275  53.2181 343.8844 0000958  94.8423 265.2678 15.08843704 50540,6917.869,95.437,540.397,539.071,0.0
53275.0,STARLINK-4179,PAYLOAD,2023-06-16 10:44:55,15.08830797,9.06e-05,53.2179,340.9101,98.6156,261.4939,0.00022405,3.279e-05,0.0,0 STARLINK-4179,1 53275U 22086AK  23167.44786896  .00003279  00000-0  22405-3 0  9998,2 53275  53.2179 340.9101 0000906  98.6156 261.4939 15.08830797 50477,6917.909,95.438,540.4,539.147,0.0
53275.0,STARLINK-4179,PAYLOAD,2023-06-16 12:20:18,15.08839762,8.58e-05,53.218,340.6126,92.6043,267.5048,8.4592e-05,1.059e-05,0.0,0 STARLINK-4179,1 53275U 22086AK  23167.51410610  .00001059  00000-0  84592-4 0  9994,2 53275  53.2180 340.6126 0000858  92.6043 267.5048 15.08839762 50657,6917.881,95.438,540.34,539.153,0.0
53275.0,STARLINK-4179,PAYLOAD,2023-06-16 20:17:13,15.08852101,9.18e-05,53.2179,339.1263,99.9724,260.1371,0.00017404,2.484e-05,0.0,0 STARLINK-4179,1 53275U 22086AK  23167.84529426  .00002484  00000-0  17404-3 0  9996,2 53275  53.2179 339.1263 0000918  99.9724 260.1371 15.08852101 50709,6917.843,95.437,540.343,539.073,0.0
53275.0,STARLINK-4179,PAYLOAD,2023-06-16 21:52:36,15.08853062,9.25e-05,53.218,338.8289,100.1868,259.9228,0.00018333,2.632e-05,0.0,0 STARLINK-4179,1 53275U 22086AK  23167.91153343  .00002632  00000-0  18333-3 0  9992,2 53275  53.2180 338.8289 0000925 100.1868 259.9228 15.08853062 50543,6917.84,95.437,540.345,539.066,0.0
53275.0,STARLINK-4179,PAYLOAD,2023-06-17 10:35:43,15.08833562,0.0001956,53.2186,336.4504,78.291,281.8302,4.7193e-05,4.63e-06,0.0,0 STARLINK-4179,1 53275U 22086AK  23168.44147498  .00000463  00000-0  47193-4 0  9992,2 53275  53.2186 336.4504 0001956  78.2910 281.8302 15.08833562 50620,6917.9,95.438,541.118,538.412,0.0
53275.0,STARLINK-4179,PAYLOAD,2023-06-17 15:21:53,15.08820304,0.0001143,53.2198,335.56,86.9394,273.1729,-0.00011638,-2.138e-05,0.0,0 STARLINK-4179,1 53275U 22086AK  23168.64020722 -.00002138  00000-0 -11638-3 0  9991,2 53275  53.2198 335.5600 0001143  86.9394 273.1729 15.08820304 50829,6917.941,95.439,540.596,539.015,0.0
53275.0,STARLINK-4179,PAYLOAD,2023-06-17 18:32:40,15.08823119,0.0001013,53.2188,334.9636,80.4103,279.7004,-9.3008e-05,-1.767e-05,0.0,0 STARLINK-4179,1 53275U 22086AK  23168.77268589 -.00001767  00000-0 -93008-4 0  9999,2 53275  53.2188 334.9636 0001013  80.4103 279.7004 15.08823119 50671,6917.932,95.439,540.498,539.096,0.0
53275.0,STARLINK-4179,PAYLOAD,2023-06-18 07:15:44,15.0884131,0.0001462,53.219,332.5859,74.1673,285.948,-4.9994e-05,-1.084e-05,0.0,0 STARLINK-4179,1 53275U 22086AK  23169.30259724 -.00001084  00000-0 -49994-4 0  9997,2 53275  53.2190 332.5859 0001462  74.1673 285.9480 15.08841310 50754,6917.876,95.437,540.753,538.73,0.0
53275.0,STARLINK-4179,PAYLOAD,2023-06-18 10:26:30,15.08834239,8.86e-05,53.2177,331.9896,79.4543,280.6548,6.4037e-05,7.31e-06,0.0,0 STARLINK-4179,1 53275U 22086AK  23169.43507644  .00000731  00000-0  64037-4 0  9999,2 53275  53.2177 331.9896 0000886  79.4543 280.6548 15.08834239 50946,6917.898,95.438,540.376,539.15,0.0
53275.0,STARLINK-4179,PAYLOAD,2023-06-19 03:55:45,15.0884395,9.14e-05,53.2176,328.7189,73.7688,286.3405,0.00033727,5.085e-05,0.0,0 STARLINK-4179,1 53275U 22086AK  23170.16371595  .00005085  00000-0  33727-3 0  9993,2 53275  53.2176 328.7189 0000914  73.7688 286.3405 15.08843950 51051,6917.868,95.437,540.366,539.101,0.0
53275.0,STARLINK-4179,PAYLOAD,2023-06-19 16:38:50,15.0885033,9.55e-05,53.2177,326.3403,70.0051,290.1044,0.00051811,7.97e-05,0.0,0 STARLINK-4179,1 53275U 22086AK  23170.69363553  .00007970  00000-0  51811-3 0  9995,2 53275  53.2177 326.3403 0000955  70.0051 290.1044 15.08850330 50965,6917.849,95.437,540.374,539.053,0.0
